CELESTIS-17 & SHERPA-FX1
1 47486U 21006CB  26068.64311433  .00007207  00000+0  24301-3 0  9993
2 47486  97.2397 112.1052 0006630 178.1385 181.9882 15.30994801284065
STARLINK-36082          
1 66872U 25281AA  26068.15908204  .00041504  00000+0  15072-2 0  9998
2 66872  43.0015 346.5308 0001815 241.8450 118.2219 15.27624289 16098
